STARLINK-4430           
1 53485U 22099W   24226.61911353  .00015096  00000+0  11786-2 0  9997
2 53485  97.6562 346.6402 0001082 119.8056 240.3276 15.01222020110009
STARLINK-4431           
1 53486U 22099X   24227.22267806  .00001495  00000+0  12097-3 0  9998
2 53486  97.6573 347.2316 0001291 127.3085 232.8257 15.01256865110336
STARLINK-4432           
1 53487U 22099Y   24227.22295483  .00023843  00000+0  18557-2 0  9998
2 53487  97.6573 347.2121 0001142 184.8669 175.2545 15.01238353110334
STARLINK-4387           
1 53490U 22099AB  24227.21713902  .00042306  00000+0  32779-2 0  9999
2 53490  97.6576 347.2312 0001148  99.7777 260.3577 15.01269385110333
STARLINK-4450           
1 53491U 22099AC  24227.20629450  .00029703  00000+0  23078-2 0  9991
2 53491  97.6540 347.2275 0002175  90.6217 269.5256 15.01252486110332
STARLINK-4451           
1 53492U 22099AD  24227.21159716  .00062454  00000+0  48209-2 0  9999
2 53492  97.6565 347.2318 0001707  80.1192 280.0225 15.01285433110336
STARLINK-4361           
1 53493U 22099AE  24227.20975183  .00009553  00000+0  74834-3 0  9998
2 53493  97.6560 347.2167 0001959 109.7571 250.3865 15.01209463110331
STARLINK-4340           
1 53494U 22099AF  24227.25001157  .00071480  00000+0  55150-2 0  9992
2 53494  97.6557 347.2598 0002032  88.9950 107.2588 15.01249570110333
STARLINK-4429           
1 53495U 22099AG  24227.20420341  .00060920  00000+0  47049-2 0  9993
2 53495  97.6545 347.2170 0001770 101.3577 258.7846 15.01274780110341
STARLINK-4465           
1 53496U 22099AH  24227.20790285  .00030682  00000+0  23837-2 0  9992
2 53496  97.6535 347.2216 0001874  96.6696 263.4742 15.01247997110332
STARLINK-4453           
1 53497U 22099AJ  24227.06719136  .00033255  00000+0  25834-2 0  9991
2 53497  97.6544 347.0810 0001832  84.4026 275.7407 15.01231958110320
STARLINK-4439           
1 53498U 22099AK  24227.06743592  .00053832  00000+0  41648-2 0  9999
2 53498  97.6541 347.0939 0001279  89.9993 270.1378 15.01251105110319
STARLINK-4454           
1 53499U 22099AL  24227.20605376  .00027544  00000+0  21417-2 0  9996
2 53499  97.6524 347.2012 0001929  82.3984 277.7459 15.01241689110335
STARLINK-4455           
1 53500U 22099AM  24227.06903709  .00004499  00000+0  35478-3 0  9991
2 53500  97.6539 347.0840 0002130  95.3968 264.7500 15.01242774110320
STARLINK-4435           
1 53502U 22099AP  24227.06533233 -.00008368  00000+0 -64838-3 0  9997
2 53502  97.6544 347.0796 0001442 109.0100 251.1280 15.01216952110317
STARLINK-4461           
1 53503U 22099AQ  24227.06558685  .00023188  00000+0  18052-2 0  9997
2 53503  97.6554 347.0654 0001862  93.2219 266.9218 15.01233025110318
STARLINK-4448           
1 53504U 22099AR  24227.06348567  .00041231  00000+0  31933-2 0  9996
2 53504  97.6547 347.0763 0002100  92.1096 268.0368 15.01290638110311
STARLINK-4446           
1 53505U 22099AS  24227.05607340  .00015927  00000+0  12432-2 0  9999
2 53505  97.6535 347.0667 0001687  94.3599 265.7818 15.01216151110315
STARLINK-4437           
1 53506U 22099AT  24227.06163176  .00001789  00000+0  14396-3 0  9998
2 53506  97.6548 347.0665 0001617  96.7987 263.3421 15.01234295110311
STARLINK-4444           
1 53507U 22099AU  24226.92091067  .00031357  00000+0  24365-2 0  9992
2 53507  97.6535 346.9323 0001269  99.8308 260.3059 15.01238210110057
STARLINK-4443           
1 53508U 22099AV  24227.05792713  .00025455  00000+0  19801-2 0  9995
2 53508  97.6539 347.0701 0001613  60.7618 299.3767 15.01244256110312
STARLINK-4402           
1 53509U 22099AW  24227.05236853  .00001691  00000+0  13638-3 0  9993
2 53509  97.6524 347.0556 0000210 241.5251 118.5952 15.01214706110314
STARLINK-4441           
1 53510U 22099AX  24227.04863846 -.00001407  00000+0 -10499-3 0  9991
2 53510  97.6525 347.0620 0001459 256.6762 103.4300 15.01249986110317
YAOGAN-35 04A           
1 53522U 22100A   24226.57600822  .00037968  00000+0  14811-2 0  9997
2 53522  35.0054 321.5573 0030420 301.3111  58.4628 15.24505882110657
YAOGAN-35 04B           
1 53524U 22100C   24226.69742794  .00049298  00000+0  19872-2 0  9998
2 53524  34.9963 324.2855 0006155 247.9310 112.0751 15.23771087  2355
YAOGAN-35 04C           
1 53526U 22100E   24226.70117425  .00034412  00000+0  13981-2 0  9996
2 53526  34.9964 324.3147 0002466 240.9725 119.0743 15.23600530110595
