OBJECT_NAME,OBJECT_ID,EPOCH,MEAN_MOTION,ECCENTRICITY,INCLINATION,RA_OF_ASC_NODE,ARG_OF_PERICENTER,MEAN_ANOMALY,EPHEMERIS_TYPE,CLASSIFICATION_TYPE,NORAD_CAT_ID,ELEMENT_SET_NO,REV_AT_EPOCH,BSTAR,MEAN_MOTION_DOT,MEAN_MOTION_DDOT
STARLINK-4430,2022-099W,2024-08-13T14:51:31.408992,15.01222020,.0001082,97.6562,346.6402,119.8056,240.3276,0,U,53485,999,11000,.11786E-2,.15096E-3,0
STARLINK-4431,2022-099X,2024-08-14T05:20:39.384384,15.01256865,.0001291,97.6573,347.2316,127.3085,232.8257,0,U,53486,999,11033,.12097E-3,.1495E-4,0
STARLINK-4432,2022-099Y,2024-08-14T05:21:03.297312,15.01238353,.0001142,97.6573,347.2121,184.8669,175.2545,0,U,53487,999,11033,.18557E-2,.23843E-3,0
STARLINK-4387,2022-099AB,2024-08-14T05:12:40.811328,15.01269385,.0001148,97.6576,347.2312,99.7777,260.3577,0,U,53490,999,11033,.32779E-2,.42306E-3,0
STARLINK-4450,2022-099AC,2024-08-14T04:57:03.844800,15.01252486,.0002175,97.6540,347.2275,90.6217,269.5256,0,U,53491,999,11033,.23078E-2,.29703E-3,0
STARLINK-4451,2022-099AD,2024-08-14T05:04:41.994624,15.01285433,.0001707,97.6565,347.2318,80.1192,280.0225,0,U,53492,999,11033,.48209E-2,.62454E-3,0
STARLINK-4361,2022-099AE,2024-08-14T05:02:02.558112,15.01209463,.0001959,97.6560,347.2167,109.7571,250.3865,0,U,53493,999,11033,.74834E-3,.9553E-4,0
STARLINK-4340,2022-099AF,2024-08-14T06:00:00.999648,15.01249570,.0002032,97.6557,347.2598,88.9950,107.2588,0,U,53494,999,11033,.5515E-2,.7148E-3,0
STARLINK-4429,2022-099AG,2024-08-14T04:54:03.174624,15.01274780,.000177,97.6545,347.2170,101.3577,258.7846,0,U,53495,999,11034,.47049E-2,.6092E-3,0
STARLINK-4465,2022-099AH,2024-08-14T04:59:22.806240,15.01247997,.0001874,97.6535,347.2216,96.6696,263.4742,0,U,53496,999,11033,.23837E-2,.30682E-3,0
STARLINK-4453,2022-099AJ,2024-08-14T01:36:45.333504,15.01231958,.0001832,97.6544,347.0810,84.4026,275.7407,0,U,53497,999,11032,.25834E-2,.33255E-3,0
STARLINK-4439,2022-099AK,2024-08-14T01:37:06.463488,15.01251105,.0001279,97.6541,347.0939,89.9993,270.1378,0,U,53498,999,11031,.41648E-2,.53832E-3,0
STARLINK-4454,2022-099AL,2024-08-14T04:56:43.044864,15.01241689,.0001929,97.6524,347.2012,82.3984,277.7459,0,U,53499,999,11033,.21417E-2,.27544E-3,0
STARLINK-4455,2022-099AM,2024-08-14T01:39:24.804576,15.01242774,.000213,97.6539,347.0840,95.3968,264.7500,0,U,53500,999,11032,.35478E-3,.4499E-4,0
STARLINK-4435,2022-099AP,2024-08-14T01:34:04.713312,15.01216952,.0001442,97.6544,347.0796,109.0100,251.1280,0,U,53502,999,11031,-.64838E-3,-.8368E-4,0
STARLINK-4461,2022-099AQ,2024-08-14T01:34:26.703840,15.01233025,.0001862,97.6554,347.0654,93.2219,266.9218,0,U,53503,999,11031,.18052E-2,.23188E-3,0
STARLINK-4448,2022-099AR,2024-08-14T01:31:25.161888,15.01290638,.00021,97.6547,347.0763,92.1096,268.0368,0,U,53504,999,11031,.31933E-2,.41231E-3,0
STARLINK-4446,2022-099AS,2024-08-14T01:20:44.741760,15.01216151,.0001687,97.6535,347.0667,94.3599,265.7818,0,U,53505,999,11031,.12432E-2,.15927E-3,0
STARLINK-4437,2022-099AT,2024-08-14T01:28:44.984064,15.01234295,.0001617,97.6548,347.0665,96.7987,263.3421,0,U,53506,999,11031,.14396E-3,.1789E-4,0
STARLINK-4444,2022-099AU,2024-08-13T22:06:06.681888,15.01238210,.0001269,97.6535,346.9323,99.8308,260.3059,0,U,53507,999,11005,.24365E-2,.31357E-3,0
STARLINK-4443,2022-099AV,2024-08-14T01:23:24.904032,15.01244256,.0001613,97.6539,347.0701,60.7618,299.3767,0,U,53508,999,11031,.19801E-2,.25455E-3,0
STARLINK-4402,2022-099AW,2024-08-14T01:15:24.640992,15.01214706,.000021,97.6524,347.0556,241.5251,118.5952,0,U,53509,999,11031,.13638E-3,.1691E-4,0
STARLINK-4441,2022-099AX,2024-08-14T01:10:02.362944,15.01249986,.0001459,97.6525,347.0620,256.6762,103.4300,0,U,53510,999,11031,-.10499E-3,-.1407E-4,0
YAOGAN-35 04A,2022-100A,2024-08-13T13:49:27.110208,15.24505882,.003042,35.0054,321.5573,301.3111,58.4628,0,U,53522,999,11065,.14811E-2,.37968E-3,0
YAOGAN-35 04B,2022-100C,2024-08-13T16:44:17.774016,15.23771087,.0006155,34.9963,324.2855,247.9310,112.0751,0,U,53524,999,235,.19872E-2,.49298E-3,0
YAOGAN-35 04C,2022-100E,2024-08-13T16:49:41.455200,15.23600530,.0002466,34.9964,324.3147,240.9725,119.0743,0,U,53526,999,11059,.13981E-2,.34412E-3,0
